start=new Date('2021-11-29T00:00:00.000Z').valueOf();
sats=[{"TLE_LINE1":"1 46536U 20070E   21332.77746006  .00057879  00000-0  36798-3 0  9993","DECAY_DATE":null,"FILE":"3226391","MEAN_ANOMALY":"170.2252","RA_OF_ASC_NODE":"308.8256","ECCENTRICITY":"0.00152680","COUNTRY_CODE":"US","LAUNCH_DATE":"2020-10-06","MEAN_MOTION_DOT":"0.00057879","TLE_LINE2":"2 46536  53.0545 308.8256 0015268 189.8470 170.2252 15.75763790 64648","SEMIMAJOR_AXIS":"6720.596","CENTER_NAME":"EARTH","EPHEMERIS_TYPE":"0","EPOCH":"2021-11-28T18:39:32.549184","OBJECT_NAME":"STARLINK-1668","TIME_SYSTEM":"UTC","INCLINATION":"53.0545","CLASSIFICATION_TYPE":"U","MEAN_MOTION":"15.75763790","OBJECT_ID":"2020-070E","APOAPSIS":"352.722","PERIOD":"91.384","MEAN_ELEMENT_THEORY":"SGP4","NORAD_CAT_ID":"46536","OBJECT_TYPE":"PAYLOAD","RCS_SIZE":"LARGE","BSTAR":"0.00036798000000","ARG_OF_PERICENTER":"189.8470","SITE":"AFETR","MEAN_MOTION_DDOT":"0.0000000000000","REF_FRAME":"TEME","PERIAPSIS":"332.200","ELEMENT_SET_NO":"999","GP_ID":"190685107","REV_AT_EPOCH":"6464"},{"OBJECT_ID":"2020-070F","MEAN_MOTION":"15.06391436","CLASSIFICATION_TYPE":"U","PERIOD":"95.593","MEAN_ELEMENT_THEORY":"SGP4","APOAPSIS":"548.470","NORAD_CAT_ID":"46537","OBJECT_TYPE":"PAYLOAD","BSTAR":"0.00000955010000","RCS_SIZE":"LARGE","PERIAPSIS":"546.009","REF_FRAME":"TEME","SITE":"AFETR","MEAN_MOTION_DDOT":"0.0000000000000","ARG_OF_PERICENTER":"52.3157","REV_AT_EPOCH":"6408","GP_ID":"190685357","ELEMENT_SET_NO":"999","DECAY_DATE":null,"TLE_LINE1":"1 46537U 20070F   21332.75223587 -.00000139  00000-0  95501-5 0  9993","FILE":"3226391","RA_OF_ASC_NODE":"348.4390","MEAN_ANOMALY":"307.7993","LAUNCH_DATE":"2020-10-06","MEAN_MOTION_DOT":"-0.00000139","ECCENTRICITY":"0.00017770","COUNTRY_CODE":"US","SEMIMAJOR_AXIS":"6925.375","TLE_LINE2":"2 46537  53.0540 348.4390 0001777  52.3157 307.7993 15.06391436 64084","EPHEMERIS_TYPE":"0","CENTER_NAME":"EARTH","INCLINATION":"53.0540","TIME_SYSTEM":"UTC","OBJECT_NAME":"STARLINK-1672","EPOCH":"2021-11-28T18:03:13.179168"},{"RCS_SIZE":"LARGE","BSTAR":"0.00002210400000","SITE":"AFETR","ARG_OF_PERICENTER":"64.0494","MEAN_MOTION_DDOT":"0.0000000000000","REF_FRAME":"TEME","PERIAPSIS":"546.145","ELEMENT_SET_NO":"999","GP_ID":"190657572","REV_AT_EPOCH":"6403","CLASSIFICATION_TYPE":"U","MEAN_MOTION":"15.06401655","OBJECT_ID":"2020-070G","APOAPSIS":"548.272","PERIOD":"95.592","MEAN_ELEMENT_THEORY":"SGP4","NORAD_CAT_ID":"46538","OBJECT_TYPE":"PAYLOAD","TLE_LINE2":"2 46538  53.0552 349.7256 0001535  64.0494 296.0653 15.06401655 64032","SEMIMAJOR_AXIS":"6925.343","CENTER_NAME":"EARTH","EPHEMERIS_TYPE":"0","EPOCH":"2021-11-28T11:09:12.081888","OBJECT_NAME":"STARLINK-1678","TIME_SYSTEM":"UTC","INCLINATION":"53.0552","TLE_LINE1":"1 46538U 20070G   21332.46472317  .00000048  00000-0  22104-4 0  9995","DECAY_DATE":null,"FILE":"3226217","MEAN_ANOMALY":"296.0653","RA_OF_ASC_NODE":"349.7256","COUNTRY_CODE":"US","ECCENTRICITY":"0.00015350","LAUNCH_DATE":"2020-10-06","MEAN_MOTION_DOT":"0.00000048"},{"REV_AT_EPOCH":"6409","GP_ID":"190686857","ELEMENT_SET_NO":"999","PERIAPSIS":"532.665","REF_FRAME":"TEME","MEAN_MOTION_DDOT":"0.0000000000000","SITE":"AFETR","ARG_OF_PERICENTER":"70.7320","BSTAR":"0.01195000000000","RCS_SIZE":"LARGE","OBJECT_TYPE":"PAYLOAD","NORAD_CAT_ID":"46539","PERIOD":"95.305","MEAN_ELEMENT_THEORY":"SGP4","APOAPSIS":"534.010","OBJECT_ID":"2020-070H","MEAN_MOTION":"15.10938996","CLASSIFICATION_TYPE":"U","INCLINATION":"53.0532","TIME_SYSTEM":"UTC","OBJECT_NAME":"STARLINK-1684","EPOCH":"2021-11-28T18:30:36.894240","EPHEMERIS_TYPE":"0","CENTER_NAME":"EARTH","SEMIMAJOR_AXIS":"6911.472","TLE_LINE2":"2 46539  53.0532 348.1538 0000973  70.7320 289.3776 15.10938996 64099","MEAN_MOTION_DOT":"0.00207183","LAUNCH_DATE":"2020-10-06","ECCENTRICITY":"0.00009730","COUNTRY_CODE":"US","RA_OF_ASC_NODE":"348.1538","MEAN_ANOMALY":"289.3776","FILE":"3226391","DECAY_DATE":null,"TLE_LINE1":"1 46539U 20070H   21332.77126035  .00207183  00000-0  11950-1 0  9996"},{"FILE":"3226391","DECAY_DATE":null,"TLE_LINE1":"1 46541U 20070K   21332.70984955  .00000331  00000-0  41123-4 0  9999","LAUNCH_DATE":"2020-10-06","MEAN_MOTION_DOT":"0.00000331","COUNTRY_CODE":"US","ECCENTRICITY":"0.00017840","MEAN_ANOMALY":"301.9662","RA_OF_ASC_NODE":"328.6101","SEMIMAJOR_AXIS":"6925.364","TLE_LINE2":"2 46541  53.0557 328.6101 0001784  58.1501 301.9662 15.06395072 64351","TIME_SYSTEM":"UTC","INCLINATION":"53.0557","OBJECT_NAME":"STARLINK-1687","EPOCH":"2021-11-28T17:02:11.001120","EPHEMERIS_TYPE":"0","CENTER_NAME":"EARTH","MEAN_ELEMENT_THEORY":"SGP4","PERIOD":"95.592","APOAPSIS":"548.464","MEAN_MOTION":"15.06395072","OBJECT_ID":"2020-070K","CLASSIFICATION_TYPE":"U","OBJECT_TYPE":"PAYLOAD","NORAD_CAT_ID":"46541","PERIAPSIS":"545.993","ARG_OF_PERICENTER":"58.1501","SITE":"AFETR","MEAN_MOTION_DDOT":"0.0000000000000","REF_FRAME":"TEME","BSTAR":"0.00004112300000","RCS_SIZE":"LARGE","REV_AT_EPOCH":"6435","ELEMENT_SET_NO":"999","GP_ID":"190685607"},{"RCS_SIZE":"LARGE","BSTAR":"0.00002045300000","REF_FRAME":"TEME","SITE":"AFETR","ARG_OF_PERICENTER":"64.9652","MEAN_MOTION_DDOT":"0.0000000000000","PERIAPSIS":"546.016","GP_ID":"190685857","ELEMENT_SET_NO":"999","REV_AT_EPOCH":"6408","CLASSIFICATION_TYPE":"U","OBJECT_ID":"2020-070L","MEAN_MOTION":"15.06394284","APOAPSIS":"548.446","PERIOD":"95.593","MEAN_ELEMENT_THEORY":"SGP4","NORAD_CAT_ID":"46542","OBJECT_TYPE":"PAYLOAD","TLE_LINE2":"2 46542  53.0554 348.3181 0001755  64.9652 295.1519 15.06394284 64085","SEMIMAJOR_AXIS":"6925.366","CENTER_NAME":"EARTH","EPHEMERIS_TYPE":"0","EPOCH":"2021-11-28T18:40:22.514304","OBJECT_NAME":"STARLINK-1692","INCLINATION":"53.0554","TIME_SYSTEM":"UTC","TLE_LINE1":"1 46542U 20070L   21332.77803836  .00000023  00000-0  20453-4 0  9996","DECAY_DATE":null,"FILE":"3226391","RA_OF_ASC_NODE":"348.3181","MEAN_ANOMALY":"295.1519","COUNTRY_CODE":"US","ECCENTRICITY":"0.00017550","MEAN_MOTION_DOT":"0.00000023","LAUNCH_DATE":"2020-10-06"},{"EPHEMERIS_TYPE":"0","CENTER_NAME":"EARTH","INCLINATION":"53.0556","TIME_SYSTEM":"UTC","OBJECT_NAME":"STARLINK-1693","EPOCH":"2021-11-28T18:19:08.185152","SEMIMAJOR_AXIS":"6925.349","TLE_LINE2":"2 46543  53.0556 348.3746 0001769  65.4588 294.6586 15.06399795 64084","RA_OF_ASC_NODE":"348.3746","MEAN_ANOMALY":"294.6586","MEAN_MOTION_DOT":"0.00002033","LAUNCH_DATE":"2020-10-06","COUNTRY_CODE":"US","ECCENTRICITY":"0.00017690","DECAY_DATE":null,"TLE_LINE1":"1 46543U 20070M   21332.76328918  .00002033  00000-0  15533-3 0  9994","FILE":"3226391","REV_AT_EPOCH":"6408","GP_ID":"190686109","ELEMENT_SET_NO":"999","BSTAR":"0.00015533000000","RCS_SIZE":"LARGE","PERIAPSIS":"545.989","REF_FRAME":"TEME","ARG_OF_PERICENTER":"65.4588","SITE":"AFETR","MEAN_MOTION_DDOT":"0.0000000000000","NORAD_CAT_ID":"46543","OBJECT_TYPE":"PAYLOAD","OBJECT_ID":"2020-070M","MEAN_MOTION":"15.06399795","CLASSIFICATION_TYPE":"U","MEAN_ELEMENT_THEORY":"SGP4","PERIOD":"95.592","APOAPSIS":"548.439"},{"NORAD_CAT_ID":"46544","OBJECT_TYPE":"PAYLOAD","CLASSIFICATION_TYPE":"U","MEAN_MOTION":"15.06397443","OBJECT_ID":"2020-070N","APOAPSIS":"548.390","PERIOD":"95.592","MEAN_ELEMENT_THEORY":"SGP4","ELEMENT_SET_NO":"999","GP_ID":"190657821","REV_AT_EPOCH":"6424","RCS_SIZE":"LARGE","BSTAR":"0.00004743000000","MEAN_MOTION_DDOT":"0.0000000000000","SITE":"AFETR","ARG_OF_PERICENTER":"67.1778","REF_FRAME":"TEME","PERIAPSIS":"546.052","MEAN_ANOMALY":"292.9389","RA_OF_ASC_NODE":"334.8861","COUNTRY_CODE":"US","ECCENTRICITY":"0.00016880","LAUNCH_DATE":"2020-10-06","MEAN_MOTION_DOT":"0.00000425","TLE_LINE1":"1 46544U 20070N   21332.42741433  .00000425  00000-0  47430-4 0  9994","DECAY_DATE":null,"FILE":"3226217","CENTER_NAME":"EARTH","EPHEMERIS_TYPE":"0","EPOCH":"2021-11-28T10:15:28.598112","OBJECT_NAME":"STARLINK-1694","TIME_SYSTEM":"UTC","INCLINATION":"53.0558","TLE_LINE2":"2 46544  53.0558 334.8861 0001688  67.1778 292.9389 15.06397443 64243","SEMIMAJOR_AXIS":"6925.356"},{"BSTAR":"0.00007740000000","RCS_SIZE":"LARGE","PERIAPSIS":"546.024","REF_FRAME":"TEME","ARG_OF_PERICENTER":"76.9435","SITE":"AFETR","MEAN_MOTION_DDOT":"0.0000000000000","REV_AT_EPOCH":"6405","GP_ID":"190663909","ELEMENT_SET_NO":"999","OBJECT_ID":"2020-070P","MEAN_MOTION":"15.06398281","CLASSIFICATION_TYPE":"U","MEAN_ELEMENT_THEORY":"SGP4","PERIOD":"95.592","APOAPSIS":"548.414","NORAD_CAT_ID":"46545","OBJECT_TYPE":"PAYLOAD","SEMIMAJOR_AXIS":"6925.354","TLE_LINE2":"2 46545  53.0551 349.4121 0001726  76.9435 283.1746 15.06398281 64058","EPHEMERIS_TYPE":"0","CENTER_NAME":"EARTH","INCLINATION":"53.0551","TIME_SYSTEM":"UTC","EPOCH":"2021-11-28T12:50:03.250176","OBJECT_NAME":"STARLINK-1696","DECAY_DATE":null,"TLE_LINE1":"1 46545U 20070P   21332.53475984  .00000871  00000-0  77400-4 0  9997","FILE":"3226358","RA_OF_ASC_NODE":"349.4121","MEAN_ANOMALY":"283.1746","MEAN_MOTION_DOT":"0.00000871","LAUNCH_DATE":"2020-10-06","COUNTRY_CODE":"US","ECCENTRICITY":"0.00017260"},{"REV_AT_EPOCH":"6408","GP_ID":"190685358","ELEMENT_SET_NO":"999","BSTAR":"0.00016690000000","RCS_SIZE":"LARGE","PERIAPSIS":"545.945","REF_FRAME":"TEME","SITE":"AFETR","ARG_OF_PERICENTER":"61.8915","MEAN_MOTION_DDOT":"0.0000000000000","NORAD_CAT_ID":"46546","OBJECT_TYPE":"PAYLOAD","OBJECT_ID":"2020-070Q","MEAN_MOTION":"15.06403512","CLASSIFICATION_TYPE":"U","PERIOD":"95.592","MEAN_ELEMENT_THEORY":"SGP4","APOAPSIS":"548.460","EPHEMERIS_TYPE":"0","CENTER_NAME":"EARTH","INCLINATION":"53.0554","TIME_SYSTEM":"UTC","OBJECT_NAME":"STARLINK-1697","EPOCH":"2021-11-28T18:50:58.801920","SEMIMAJOR_AXIS":"6925.338","TLE_LINE2":"2 46546  53.0554 348.2766 0001816  61.8915 298.2257 15.06403512 64081","RA_OF_ASC_NODE":"348.2766","MEAN_ANOMALY":"298.2257","LAUNCH_DATE":"2020-10-06","MEAN_MOTION_DOT":"0.00002205","COUNTRY_CODE":"US","ECCENTRICITY":"0.00018160","DECAY_DATE":null,"TLE_LINE1":"1 46546U 20070Q   21332.78540280  .00002205  00000-0  16690-3 0  9993","FILE":"3226391"}];
